GLOBALSTAR M063 [+]     
1 26081U 00008A   24056.38577705 -.00000092  00000+0 -13335-3 0  9994
2 26081  51.9953 289.9115 0005281 111.8635  59.0946 11.86150979100873
GLOBALSTAR M062 [-]     
1 26082U 00008B   24056.42511917 -.00000008  00000+0  64183-3 0  9996
2 26082  51.9848  60.6918 0007264 171.0572 336.8322 12.43429797437185
GLOBALSTAR M060 [-]     
1 26083U 00008C   24056.42024106 -.00000139  00000+0 -48080-3 0  9990
2 26083  52.0037 313.1281 0002651 232.7949 299.1879 12.17627215 94166
GLOBALSTAR M064 [-]     
1 26084U 00008D   24056.28634640 -.00000065  00000+0  25854-3 0  9996
2 26084  52.0048  34.6316 0001322 213.8793 146.1955 11.88515599110279
GLOBALSTAR M065 [+]     
1 31571U 07020A   24056.47061840 -.00000078  00000+0  14174-3 0  9998
2 31571  51.9869 240.2273 0009826 333.4174  43.7060 12.61963328773094
GLOBALSTAR M069 [+]     
1 31573U 07020C   24056.58503668 -.00000114  00000+0 -58780-4 0  9995
2 31573  51.9934 195.8496 0001561 115.9492 324.7370 12.62256974774231
GLOBALSTAR M072 [+]     
1 31574U 07020D   24056.36293663 -.00000058  00000+0  25796-3 0  9999
2 31574  52.0083 292.3648 0001161  63.2284 107.6813 12.62268216772477
GLOBALSTAR M071 [P]     
1 31576U 07020F   24056.61145753 -.00000104  00000+0 -14275-5 0  9990
2 31576  52.0049 200.8466 0001947 125.0061 315.6852 12.62267722435421
